[Satellite]
VERSION=1.1
NAME=COSMOS 2228
NICKNAME=COSMOS 2228
TLE1=1 22286U 92094A   17185.93989795  .00000172  00000-0  16098-4 0  9993
TLE2=2 22286  82.5207 357.3617 0021985  64.7661 295.5831 14.87674334304066
